#cP2023  4  2  0  0  0.00000000      96 ORBIT IGS20 HLM  IGS
## 2256      0.00000000   900.00000000 60036 0.0000000000000
+   32   G01G02G03G04G05G06G07G08G09G10G11G12G13G14G15G16G17
+        G18G19G20G21G22G23G24G25G26G27G28G29G30G31G32  0  0
+          0  0  0  0  0  0  0  0  0  0  0  0  0  0  0  0  0
+          0  0  0  0  0  0  0  0  0  0  0  0  0  0  0  0  0
+          0  0  0  0  0  0  0  0  0  0  0  0  0  0  0  0  0
++         2  2  2  2  2  2  2  2  2  2  2  2  2  2  2  2  2
++         3  2  2  2  3  2  3  2  2  2  3  2  3  2  2  0  0
++         0  0  0  0  0  0  0  0  0  0  0  0  0  0  0  0  0
++         0  0  0  0  0  0  0  0  0  0  0  0  0  0  0  0  0
++         0  0  0  0  0  0  0  0  0  0  0  0  0  0  0  0  0
%c G  cc GPS ccc cccc cccc cccc cccc ccccc ccccc ccccc ccccc
%c cc cc ccc ccc cccc cccc cccc cccc ccccc ccccc ccccc ccccc
%f  1.2500000  1.025000000  0.00000000000  0.000000000000000
%f  0.0000000  0.000000000  0.00000000000  0.000000000000000
%i    0    0    0    0      0      0      0      0         0
%i    0    0    0    0      0      0      0      0         0
/* RAPID ORBIT COMBINATION FROM WEIGHTED AVERAGE OF:        
/* cod emr esa gfz grg jpl ngs sio usn whu                  
/* REFERENCED TO IGS TIME (IGST) AND TO WEIGHTED MEAN POLE: 
/* PCV:IGS20_2233 OL/AL:FES2014b NONE     Y  ORB:CMB CLK:CMB
*  2023  4  2  6  0  0.00000000
PG01 -13209.039537  14829.361235  17128.626264    196.999347  5  7  4  92       
PG02  10567.353048 -19208.748786 -14546.015468   -609.725610  1  7  6  68       
PG03 -22633.030938  13123.104625  -4317.186954   -338.228749  4  4  7 114       
PG04 -14453.763691   7285.164813 -21067.334893      6.975918  5  5  6 125       
PG05  23926.237000  -3009.007032 -11436.438272   -121.809732  4  5  4  40       
PG06   5954.003443  22306.112048 -12976.820426    585.069835  6  9  6 108       
PG07  -6695.969888  24742.013538  -5452.178647    210.423475  5 10  6 112       
PG08 -22200.636918  -3048.304650  14489.595900   -115.813483  4  7  5  81       
PG09  -3836.528258  15607.333240 -21209.800726   -188.527502  5  6  5 123       
PG10  -3167.429092 -14801.158157  21977.081529    -31.082384  3  4  4 115       
PG11  13038.131445   9950.170634 -20889.229531   -149.097441  5  6  6 106       
PG12  24240.486034 -10505.525652  -2465.551498   -358.891175  4  4  4  77       
PG13  21756.279894  11568.283017   9998.006040    499.625623  6  7  6  73       
PG14   -340.992995  16310.131947  20942.715193     12.911276  6  7  6  95       
PG15  22331.770238    119.309990  14123.251923     26.936881  5  6  7  84       
PG16 -23214.398961  -1990.467173 -13467.815115   -511.675819  3  9  5 103       
PG17   9009.784438  20471.566942  14673.755468    708.582750  3  8  3  83       
PG18   4835.403773 -25942.479584  -2193.878756   -206.012268  4  8  3  81       
PG19  16687.528027  20109.386417   5305.196721    298.128683  3  7  6  91       
PG20  18450.088671   3874.379199 -18596.770903    441.395099  5  4  3  77       
PG21 -15178.525918   5268.048415  21582.086611    154.311210  5  6  4 138       
PG22 -18456.393280 -19023.322076   3212.792273    456.599792  8  6  9 114       
PG23   9718.219349 -17631.825504  17252.505837     14.166021  3  7  4 108       
PG24  14346.772062 -10792.335349  19088.828376   -135.724860  7  5  8  80       
PG25  17239.792541 -16701.343213 -11384.406777    432.445299  8  5  4  75       
PG26 -13975.670708  -9823.126039 -20524.573628    241.924873  5  8  5 111       
PG27 -23073.290323 -12537.130008   5028.285378     67.875286  5  6  4 103       
PG28  -6047.143793 -23362.924066 -11127.172672     57.195008  7 13  7  50       
PG29   8405.700261 -12354.806125 -22004.815982   -593.682298  6  5  5  54       
PG30   1434.323475  25697.503802   6070.263449   -524.306989  7 14  9 106       
PG31  -9409.820913 -18410.233235 -16597.768209   -213.029924  5  6  5  87       
PG32 -12844.070632 -19924.521803  12355.917016   -440.356526  4  5  5 107       
*  2023  4  2  6 15  0.00000000
PG01 -13135.621093  12704.714850  18811.340664    196.996120  5  7  4  99       
PG02  10742.904822 -17339.355142 -16524.655982   -609.722917  2  7  6  85       
PG03 -23010.459759  13067.697896  -1445.593641   -338.221576  5  4  7  90       
PG04 -16307.935994   5826.291683 -20158.186768      6.984038  5  5  5 112       
PG05  22769.709597  -2175.514696 -13771.296804   -121.810700  5  5  4  52       
PG06   5684.800343  23640.154023 -10505.033480    585.071582  6  9  6 106       
PG07  -6941.169839  23876.128027  -8167.765826    210.415938  5 10  6 108       
PG08 -23384.135845  -4030.387445  12259.214789   -115.814696  4  8  5 104       
PG09  -5902.557812  14309.622284 -21651.504157   -188.520534  5  6  6 112       
PG10   -943.680553 -15820.150725  21437.793404    -31.083107  3  4  4 113       
PG11  12658.178798  12252.865121 -19878.047781   -149.108368  5  6  7  91       
PG12  24413.487405 -10307.241907    402.372433   -358.895070  4  5  4  81       
PG13  22368.445009  12395.779318   7372.166336    499.630827  5  7  6  77       
PG14  -2531.365400  17172.326711  20072.853084     12.921161  6  7  6 105       
PG15  23607.749276   1044.528936  11933.011588     26.940112  4  6  7  79       
PG16 -21768.765468  -2689.100252 -15598.100890   -511.673497  3  8  5  97       
PG17   7558.089713  19524.785855  16711.434561    708.584731  4  8  2  79       
PG18   5021.263542 -25507.513643  -5044.521912   -206.027345  4  7  4  73       
PG19  15968.019190  19745.409790   8034.514536    298.133322  3  7  6  91       
PG20  16719.381260   5267.062064 -19863.764734    441.393213  5  3  3  73       
PG21 -15268.205071   2882.240158  22050.896759    154.310846  5  6  5 137       
PG22 -17944.298443 -18900.712966   5998.542200    456.606171  8  6  9 107       
PG23  11447.687745 -18349.067998  15323.283865     14.168158  3  7  4 103       
PG24  14517.320465  -8461.139155  20127.446592   -135.738341  7  4  8 102       
PG25  18363.609528 -16970.298048  -8858.631845    432.447921  7  5  4  89       
PG26 -11945.326496 -11037.069181 -21152.687910    241.924830  6  8  4 102       
PG27 -23321.165195 -12949.646520   2221.699840     67.867896  5  6  4  97       
PG28  -5777.437884 -24476.443091  -8579.210033     57.202034  7 13  7  53       
PG29  10358.867734 -10790.878028 -22001.734399   -593.683723  6  4  5  75       
PG30   1052.804797  26198.467549   3318.705712   -524.305414  7 14  8 113       
PG31  -9026.344660 -20155.350050 -14606.654328   -213.030864  5  5  6  84       
PG32 -11487.047781 -19238.432671  14590.100891   -440.365912  4  5  4 115       
*  2023  4  2  6 30  0.00000000
PG01 -13174.446780  10405.114138  20157.872957    196.992931  5  7  3 108       
PG02  11032.097709 -15265.750609 -18208.762382   -609.720128  3  6  6  71       
PG03 -23104.158735  12872.792493   1451.033155   -338.214392  5  4  7  93       
PG04 -18132.602701   4534.056892 -18902.756866      6.992118  5  5  5 112       
PG05  21446.954525  -1151.520739 -15872.830623   -121.812116  4  6  4  75       
PG06   5498.289081  24695.087914  -7850.935793    585.073343  7  9  5 100       
PG07  -7224.251131  22717.710212 -10736.415182    210.408728  5  9  6 110       
PG08 -24388.265145  -4817.750722   9821.323107   -115.817245  4  8  6  97       
PG09  -8057.332066  13105.891472 -21722.976291   -188.513569  5  5  6 115       
PG10   1152.691041 -16921.620896  20533.745434    -31.083805  3  3  5 109       
PG11  12409.618060  14438.512469 -18524.855934   -149.119324  5  7  7  94       
PG12  24302.708610  -9978.637433   3263.297101   -358.899171  4  7  4  88       
PG13  22787.615142  12996.542056   4620.200019    499.635979  5  8  6  71       
PG14  -4571.923166  18089.845640  18856.693707     12.931124  6  8  6 101       
PG15  24685.040337   1801.440699   9535.327923     26.943303  3  6  8  87       
PG16 -20159.170921  -3555.574367 -17470.400513   -511.671208  4  8  5 107       
PG17   5884.962733  18539.467855  18468.816361    708.586029  3  8  2  70       
PG18   5218.878784 -24764.026930  -7807.572996   -206.042443  5  7  4  72       
PG19  14987.273717  19240.711470  10626.677971    298.138260  3  7  5  88       
PG20  14963.937910   6820.098657 -20786.337255    441.391182  4  2  3  87       
PG21 -15487.052365    481.637021  22157.491353    154.310538  6  7  5 138       
PG22 -17180.226150 -18624.239830   8683.189474    456.612505  8  7  8 112       
PG23  12935.470647 -19038.583554  13128.733462     14.170272  4  7  4 107       
PG24  14802.391391  -6044.753256  20806.093029   -135.751824  7  5  8  97       
PG25  19219.364269 -17148.851160  -6179.854871    432.450504  7  5  5  94       
PG26  -9931.237212 -12376.742954 -21421.786327    241.924840  7  8  4  88       
PG27 -23319.222257 -13183.708665   -622.270422     67.860515  4  6  4  79       
PG28  -5560.872741 -25306.009994  -5883.790165     57.208998  7 13  7  38       
PG29  12376.572542  -9349.384584 -21621.985421   -593.685274  6  5  5  67       
PG30    703.709506  26401.933956    509.185800   -524.303926  8 13  6 115       
PG31  -8739.680477 -21680.660951 -12361.840753   -213.031554  5  5  6  70       
PG32  -9892.087704 -18504.208036  16578.172725   -440.375282  4  5  4 115       
EOF
